[{"OBJECT_NAME":"STARLINK-35041","OBJECT_ID":"2025-243M","EPOCH":"2026-03-09T18:17:04.566624","MEAN_MOTION":15.30203824,"ECCENTRICITY":9.045e-5,"INCLINATION":53.1586,"RA_OF_ASC_NODE":245.0016,"ARG_OF_PERICENTER":118.8471,"MEAN_ANOMALY":241.262,"EPHEMERIS_TYPE":0,"CLASSIFICATION_TYPE":"U","NORAD_CAT_ID":66188,"ELEMENT_SET_NO":999,"REV_AT_EPOCH":2066,"BSTAR":0.00085424912,"MEAN_MOTION_DOT":0.00025029,"MEAN_MOTION_DDOT":0},{"OBJECT_NAME":"ELECTRON KICK STAGE R\/B","OBJECT_ID":"2022-147B","EPOCH":"2026-03-09T22:28:20.187264","MEAN_MOTION":15.28920172,"ECCENTRICITY":0.00095089,"INCLINATION":97.642,"RA_OF_ASC_NODE":85.1135,"ARG_OF_PERICENTER":110.4683,"MEAN_ANOMALY":249.7578,"EPHEMERIS_TYPE":0,"CLASSIFICATION_TYPE":"U","NORAD_CAT_ID":54228,"ELEMENT_SET_NO":999,"REV_AT_EPOCH":18390,"BSTAR":0.00083201931,"MEAN_MOTION_DOT":0.00023374,"MEAN_MOTION_DDOT":0}]
